OBJECT_NAME,OBJECT_ID,EPOCH,MEAN_MOTION,ECCENTRICITY,INCLINATION,RA_OF_ASC_NODE,ARG_OF_PERICENTER,MEAN_ANOMALY,EPHEMERIS_TYPE,CLASSIFICATION_TYPE,NORAD_CAT_ID,ELEMENT_SET_NO,REV_AT_EPOCH,BSTAR,MEAN_MOTION_DOT,MEAN_MOTION_DDOT
COSMO-SKYMED 1,2007-023A,2026-06-17T04:50:39.638688,14.97099186,.0001293,97.8847,0.0576,98.0483,262.0885,0,U,31598,999,2979,.19676E-3,.221E-4,0
COSMOS 2428,2007-029A,2026-06-16T22:21:04.290624,14.12928167,.0007137,70.9369,355.0149,135.4467,224.7229,0,U,31792,999,97811,-.3634E-4,-.116E-5,0
SL-16 R/B,2007-029B,2026-06-17T04:51:03.872160,14.14855105,.0002325,70.9768,323.1966,261.9043,271.0936,0,U,31793,999,97944,.76153E-4,.99E-6,0
KORONAS-FOTON,2009-003A,2026-06-17T00:19:48.452736,15.45720618,.0011672,82.4283,172.4405,148.0027,212.1933,0,U,33504,999,96107,.19418E-3,.9442E-4,0
CZ-2C R/B,2011-030B,2026-06-16T18:30:12.219264,14.81470666,.0053091,97.8655,123.1646,29.3113,32.7821,0,U,37731,999,80476,.1411E-3,.1077E-4,0
H-2A R/B,2012-025E,2026-06-17T00:33:18.239328,14.95720311,.0043653,98.4832,143.1552,349.8926,10.1410,0,U,38341,999,76306,.23652E-3,.2613E-4,0
SHIJIAN-16 (SJ-16),2013-057A,2026-06-17T04:08:12.696288,14.92606492,.0016848,74.9724,356.7112,230.8561,129.1131,0,U,39358,999,68634,.74971E-4,.744E-5,0
SL-4 R/B,2014-021B,2026-06-16T14:38:39.541632,15.41943923,.0091248,51.6035,213.5984,103.9001,257.2154,0,U,39679,999,67152,.1835E-3,.8759E-4,0
ALOS-2,2014-029A,2026-06-17T03:20:24.398592,14.79468085,.0001639,97.9226,265.3027,91.6971,268.4429,0,U,39766,999,65157,.76124E-4,.517E-5,0
YAOGAN-29,2015-069A,2026-06-17T04:16:02.936064,14.83086557,.0002607,98.0021,196.8106,55.8914,304.2547,0,U,41038,999,57062,.89405E-4,.674E-5,0
ASTRO-H (HITOMI),2016-012A,2026-06-17T02:24:28.829088,15.10510827,.000977,30.9996,74.7478,252.8685,107.0883,0,U,41337,999,56727,.12204E-3,.2158E-4,0
HXMT (HUIYAN),2017-034A,2026-06-17T04:48:11.151648,15.18477026,.0030594,43.0125,182.9690,147.2321,213.0432,0,U,42758,999,49766,.1075E-3,.2035E-4,0
SAOCOM 1A,2018-076A,2026-06-17T04:53:06.574848,14.82147074,.0001565,97.8873,354.9515,79.4546,280.6843,0,U,43641,999,41610,.19099E-4,.1E-5,0
H-2A R/B,2018-084L,2026-06-17T04:37:55.548192,15.45153985,.0023512,98.8572,47.0841,40.5533,319.7457,0,U,43682,999,42112,.33931E-3,.16143E-3,0
SAOCOM 1B,2020-059A,2026-06-17T04:00:45.091584,14.82146597,.000162,97.8878,354.0108,82.7823,277.3574,0,U,46265,999,31348,.27986E-4,.171E-5,0
CSS (TIANHE),2021-035A,2026-06-17T02:31:12.678240,15.60807572,.000745,41.4698,322.5016,76.7356,283.4313,0,U,48274,999,29315,.2302E-3,.19479E-3,0
COSMOS 2550,2021-056A,2026-06-17T02:08:34.802016,15.33840709,.0008355,67.1435,100.2022,268.7354,91.2843,0,U,48865,999,27870,.33703E-3,.10916E-3,0
CZ-2C R/B,2022-058K,2026-06-16T06:46:43.305888,15.61795532,.0032543,50.1832,168.2256,264.2442,95.4821,0,U,52794,999,22550,.34419E-3,.30822E-3,0
CZ-2C R/B,2022-132E,2026-06-16T23:04:26.446080,15.71473906,.0016134,97.2897,174.9753,84.8628,275.4476,0,U,54039,999,20591,.38085E-3,.49024E-3,0
GSLV R/B,2022-138AN,2026-06-17T04:25:49.851264,14.97257211,.0022867,87.3807,132.9852,143.6228,216.6564,0,U,54149,999,19881,.20099E-3,.2368E-4,0
XRISM,2023-137A,2026-06-16T23:49:26.738112,15.12465505,.0007958,31.0033,0.8620,321.8772,38.1304,0,U,57800,999,15283,.23198E-3,.4236E-4,0
ACS3,2024-077B,2026-06-16T16:52:28.291008,13.93938143,.0074218,97.1682,86.5996,63.7552,297.1218,0,U,59588,999,10797,.17722E-1,.23988E-3,0
CZ-8A R/B,2025-231K,2026-06-16T21:53:41.626176,14.30154851,.0116489,50.0057,40.4857,223.0378,136.1383,0,U,66004,999,3490,.43962E-4,-.4E-6,0
SZ-21 MODULE,2025-246C,2026-06-15T16:41:15.002592,15.76287551,.00064925,41.4723,316.6164,340.9855,19.0747,0,U,66515,999,3350,.25046654E-3,.4052E-3,0
