COSMO-SKYMED 1          
1 31598U 07023A   26168.20184767  .00002210  00000+0  19676-3 0  9992
2 31598  97.8847   0.0576 0001293  98.0483 262.0885 14.97099186 29798
COSMOS 2428             
1 31792U 07029A   26167.93129966 -.00000116  00000+0 -36340-4 0  9996
2 31792  70.9369 355.0149 0007137 135.4467 224.7229 14.12928167978118
SL-16 R/B               
1 31793U 07029B   26168.20212815  .00000099  00000+0  76153-4 0  9998
2 31793  70.9768 323.1966 0002325 261.9043 271.0936 14.14855105979444
KORONAS-FOTON           
1 33504U 09003A   26168.01375524  .00009442  00000+0  19418-3 0  9991
2 33504  82.4283 172.4405 0011672 148.0027 212.1933 15.45720618961079
CZ-2C R/B               
1 37731U 11030B   26167.77097476  .00001077  00000+0  14110-3 0  9999
2 37731  97.8655 123.1646 0053091  29.3113  32.7821 14.81470666804764
H-2A R/B                
1 38341U 12025E   26168.02312777  .00002613  00000+0  23652-3 0  9993
2 38341  98.4832 143.1552 0043653 349.8926  10.1410 14.95720311763060
SHIJIAN-16 (SJ-16)      
1 39358U 13057A   26168.17236917  .00000744  00000+0  74971-4 0  9999
2 39358  74.9724 356.7112 0016848 230.8561 129.1131 14.92606492686348
SL-4 R/B                
1 39679U 14021B   26167.61017988  .00008759  00000+0  18350-3 0  9992
2 39679  51.6035 213.5984 0091248 103.9001 257.2154 15.41943923671524
ALOS-2                  
1 39766U 14029A   26168.13917128  .00000517  00000+0  76124-4 0  9998
2 39766  97.9226 265.3027 0001639  91.6971 268.4429 14.79468085651576
YAOGAN-29               
1 41038U 15069A   26168.17781176  .00000674  00000+0  89405-4 0  9994
2 41038  98.0021 196.8106 0002607  55.8914 304.2547 14.83086557570628
ASTRO-H (HITOMI)        
1 41337U 16012A   26168.10033367  .00002158  00000+0  12204-3 0  9991
2 41337  30.9996  74.7478 0009770 252.8685 107.0883 15.10510827567276
HXMT (HUIYAN)           
1 42758U 17034A   26168.20012907  .00002035  00000+0  10750-3 0  9990
2 42758  43.0125 182.9690 0030594 147.2321 213.0432 15.18477026497667
SAOCOM 1A               
1 43641U 18076A   26168.20354832  .00000100  00000+0  19099-4 0  9992
2 43641  97.8873 354.9515 0001565  79.4546 280.6843 14.82147074416107
H-2A R/B                
1 43682U 18084L   26168.19300403  .00016143  00000+0  33931-3 0  9993
2 43682  98.8572  47.0841 0023512  40.5533 319.7457 15.45153985421123
SAOCOM 1B               
1 46265U 20059A   26168.16718856  .00000171  00000+0  27986-4 0  9998
2 46265  97.8878 354.0108 0001620  82.7823 277.3574 14.82146597313483
CSS (TIANHE)            
1 48274U 21035A   26168.10500785  .00019479  00000+0  23020-3 0  9994
2 48274  41.4698 322.5016 0007450  76.7356 283.4313 15.60807572293153
COSMOS 2550             
1 48865U 21056A   26168.08929169  .00010916  00000+0  33703-3 0  9997
2 48865  67.1435 100.2022 0008355 268.7354  91.2843 15.33840709278703
CZ-2C R/B               
1 52794U 22058K   26167.28244567  .00030822  00000+0  34419-3 0  9992
2 52794  50.1832 168.2256 0032543 264.2442  95.4821 15.61795532225506
CZ-2C R/B               
1 54039U 22132E   26167.96141720  .00049024  00000+0  38085-3 0  9998
2 54039  97.2897 174.9753 0016134  84.8628 275.4476 15.71473906205917
GSLV R/B                
1 54149U 22138AN  26168.18460476  .00002368  00000+0  20099-3 0  9999
2 54149  87.3807 132.9852 0022867 143.6228 216.6564 14.97257211198815
XRISM                   
1 57800U 23137A   26167.99267058  .00004236  00000+0  23198-3 0  9994
2 57800  31.0033   0.8620 0007958 321.8772  38.1304 15.12465505152839
ACS3                    
1 59588U 24077B   26167.70310522  .00023988  00000+0  17722-1 0  9996
2 59588  97.1682  86.5996 0074218  63.7552 297.1218 13.93938143107971
CZ-8A R/B               
1 66004U 25231K   26167.91228734 -.00000040  00000+0  43962-4 0  9999
2 66004  50.0057  40.4857 0116489 223.0378 136.1383 14.30154851 34900
SZ-21 MODULE            
1 66515U 25246C   26166.69531253  .00040520  00000+0  25047-3 0  9998
2 66515  41.4723 316.6164 0006492 340.9855  19.0747 15.76287551 33504
